{"type": "FeatureCollection", "features": [ {"type": "Feature", "properties": {"norad_id": 43058, "name": "GSAT0218 (GALILEO 22)", "group": "galileo", "lat": 25.24798097322768, "lon": 27.691194031739915, "alt_km": 23226.994196037842, "timestamp": "2025-12-04T15:47:54.361011+00:00", "meta": {"OBJECT_NAME": "GSAT0218 (GALILEO 22)", "OBJECT_ID": "2017-079D", "EPOCH": "2025-12-03T05:49:40.297728", "MEAN_MOTION": 1.70473824, "ECCENTRICITY": 0.00029171, "INCLINATION": 55.1321, "RA_OF_ASC_NODE": 226.8951, "ARG_OF_PERICENTER": 304.1404, "MEAN_ANOMALY": 55.9211, "EPHEMERIS_TYPE": 0, "CLASSIFICATION_TYPE": "U", "NORAD_CAT_ID": 43058, "ELEMENT_SET_NO": 999, "REV_AT_EPOCH": 4967, "BSTAR": 0, "MEAN_MOTION_DOT": 3.9e-07, "MEAN_MOTION_DDOT": 0}, "tle": {"line1": "1 43058U 17079D   25337.24282752  .00000039  00000+0  00000+0 0  9996", "line2": "2 43058  55.1321 226.8951 0002917 304.1404  55.9211  1.70473824 49672"}}, "geometry": {"type": "Point", "coordinates": [27.691194031739915, 25.24798097322768]}}, {"type": "Feature", "properties": {"norad_id": 43564, "name": "GSAT0221 (GALILEO 25)", "group": "galileo", "lat": -23.537984172213925, "lon": -176.65958736003472, "alt_km": 23218.883788603394, "timestamp": "2025-12-04T15:47:54.361022+00:00", "meta": {"OBJECT_NAME": "GSAT0221 (GALILEO 25)", "OBJECT_ID": "2018-060A", "EPOCH": "2025-12-01T09:15:23.303232", "MEAN_MOTION": 1.70475711, "ECCENTRICITY": 0.00066191, "INCLINATION": 57.2301, "RA_OF_ASC_NODE": 347.1247, "ARG_OF_PERICENTER": 279.777, "MEAN_ANOMALY": 80.1905, "EPHEMERIS_TYPE": 0, "CLASSIFICATION_TYPE": "U", "NORAD_CAT_ID": 43564, "ELEMENT_SET_NO": 999, "REV_AT_EPOCH": 4579, "BSTAR": 0, "MEAN_MOTION_DOT": -5.9e-07, "MEAN_MOTION_DDOT": 0}, "tle": {"line1": "1 43564U 18060A   25335.38568638 -.00000059  00000+0  00000+0 0  9995", "line2": "2 43564  57.2301 347.1247 0006619 279.7770  80.1905  1.70475711 45792"}}, "geometry": {"type": "Point", "coordinates": [-176.65958736003472, -23.537984172213925]}}, {"type": "Feature", "properties": {"norad_id": 43565, "name": "GSAT0222 (GALILEO 26)", "group": "galileo", "lat": 53.83834112199474, "lon": 48.85885393622786, "alt_km": 23234.02017689187, "timestamp": "2025-12-04T15:47:54.361034+00:00", "meta": {"OBJECT_NAME": "GSAT0222 (GALILEO 26)", "OBJECT_ID": "2018-060B", "EPOCH": "2025-12-03T08:45:14.770656", "MEAN_MOTION": 1.70475396, "ECCENTRICITY": 0.00061792, "INCLINATION": 57.2336, "RA_OF_ASC_NODE": 347.0741, "ARG_OF_PERICENTER": 260.8098, "MEAN_ANOMALY": 99.1565, "EPHEMERIS_TYPE": 0, "CLASSIFICATION_TYPE": "U", "NORAD_CAT_ID": 43565, "ELEMENT_SET_NO": 999, "REV_AT_EPOCH": 4587, "BSTAR": 0, "MEAN_MOTION_DOT": -6.7e-07, "MEAN_MOTION_DDOT": 0}, "tle": {"line1": "1 43565U 18060B   25337.36475429 -.00000067  00000+0  00000+0 0  9990", "line2": "2 43565  57.2336 347.0741 0006179 260.8098  99.1565  1.70475396 45874"}}, "geometry": {"type": "Point", "coordinates": [48.85885393622786, 53.83834112199474]}}, {"type": "Feature", "properties": {"norad_id": 43566, "name": "GSAT0219 (GALILEO 23)", "group": "galileo", "lat": -47.86800022168205, "lon": -58.36736733096877, "alt_km": 23210.52123102421, "timestamp": "2025-12-04T15:47:54.361045+00:00", "meta": {"OBJECT_NAME": "GSAT0219 (GALILEO 23)", "OBJECT_ID": "2018-060C", "EPOCH": "2025-12-03T14:03:42.727680", "MEAN_MOTION": 1.70475586, "ECCENTRICITY": 0.00058261, "INCLINATION": 57.2326, "RA_OF_ASC_NODE": 347.0697, "ARG_OF_PERICENTER": 286.7572, "MEAN_ANOMALY": 73.2143, "EPHEMERIS_TYPE": 0, "CLASSIFICATION_TYPE": "U", "NORAD_CAT_ID": 43566, "ELEMENT_SET_NO": 999, "REV_AT_EPOCH": 4585, "BSTAR": 0, "MEAN_MOTION_DOT": -6.8e-07, "MEAN_MOTION_DDOT": 0}, "tle": {"line1": "1 43566U 18060C   25337.58591120 -.00000068  00000+0  00000+0 0  9993", "line2": "2 43566  57.2326 347.0697 0005826 286.7572  73.2143  1.70475586 45850"}}, "geometry": {"type": "Point", "coordinates": [-58.36736733096877, -47.86800022168205]}}, {"type": "Feature", "properties": {"norad_id": 43567, "name": "GSAT0220 (GALILEO 24)", "group": "galileo", "lat": 14.67107498984109, "lon": 157.33604888008932, "alt_km": 23228.926238828422, "timestamp": "2025-12-04T15:47:54.361056+00:00", "meta": {"OBJECT_NAME": "GSAT0220 (GALILEO 24)", "OBJECT_ID": "2018-060D", "EPOCH": "2025-12-01T11:03:06.852672", "MEAN_MOTION": 1.70475407, "ECCENTRICITY": 0.00061058, "INCLINATION": 57.2328, "RA_OF_ASC_NODE": 347.128, "ARG_OF_PERICENTER": 280.6549, "MEAN_ANOMALY": 79.3184, "EPHEMERIS_TYPE": 0, "CLASSIFICATION_TYPE": "U", "NORAD_CAT_ID": 43567, "ELEMENT_SET_NO": 999, "REV_AT_EPOCH": 4580, "BSTAR": 0, "MEAN_MOTION_DOT": -5.9e-07, "MEAN_MOTION_DDOT": 0}, "tle": {"line1": "1 43567U 18060D   25335.46049598 -.00000059  00000+0  00000+0 0  9996", "line2": "2 43567  57.2328 347.1280 0006105 280.6549  79.3184  1.70475407 45809"}}, "geometry": {"type": "Point", "coordinates": [157.33604888008932, 14.67107498984109]}}, {"type": "Feature", "properties": {"norad_id": 49809, "name": "GSAT0223 (GALILEO 27)", "group": "galileo", "lat": -53.6040161204736, "lon": -132.10030975980462, "alt_km": 23213.75220338142, "timestamp": "2025-12-04T15:47:54.361068+00:00", "meta": {"OBJECT_NAME": "GSAT0223 (GALILEO 27)", "OBJECT_ID": "2021-116A", "EPOCH": "2025-12-03T22:51:48.276576", "MEAN_MOTION": 1.70475481, "ECCENTRICITY": 0.00047656, "INCLINATION": 57.2213, "RA_OF_ASC_NODE": 346.9508, "ARG_OF_PERICENTER": 249.4566, "MEAN_ANOMALY": 290.7436, "EPHEMERIS_TYPE": 0, "CLASSIFICATION_TYPE": "U", "NORAD_CAT_ID": 49809, "ELEMENT_SET_NO": 999, "REV_AT_EPOCH": 2485, "BSTAR": 0, "MEAN_MOTION_DOT": -6.9e-07, "MEAN_MOTION_DDOT": 0}, "tle": {"line1": "1 49809U 21116A   25337.95264209 -.00000069  00000+0  00000+0 0  9992", "line2": "2 49809  57.2213 346.9508 0004765 249.4566 290.7436  1.70475481 24852"}}, "geometry": {"type": "Point", "coordinates": [-132.10030975980462, -53.6040161204736]}}, {"type": "Feature", "properties": {"norad_id": 49810, "name": "GSAT0224 (GALILEO 28)", "group": "galileo", "lat": 4.92268381883651, "lon": -9.882459763882636, "alt_km": 23226.812186892825, "timestamp": "2025-12-04T15:47:54.361095+00:00", "meta": {"OBJECT_NAME": "GSAT0224 (GALILEO 28)", "OBJECT_ID": "2021-116B", "EPOCH": "2025-12-01T10:08:38.707008", "MEAN_MOTION": 1.70475584, "ECCENTRICITY": 0.00040435, "INCLINATION": 57.2228, "RA_OF_ASC_NODE": 347.0184, "ARG_OF_PERICENTER": 250.3752, "MEAN_ANOMALY": 289.7186, "EPHEMERIS_TYPE": 0, "CLASSIFICATION_TYPE": "U", "NORAD_CAT_ID": 49810, "ELEMENT_SET_NO": 999, "REV_AT_EPOCH": 2483, "BSTAR": 0, "MEAN_MOTION_DOT": -5.9e-07, "MEAN_MOTION_DDOT": 0}, "tle": {"line1": "1 49810U 21116B   25335.42267022 -.00000059  00000+0  00000+0 0  9999", "line2": "2 49810  57.2228 347.0184 0004043 250.3752 289.7186  1.70475584 24831"}}, "geometry": {"type": "Point", "coordinates": [-9.882459763882636, 4.92268381883651]}}, {"type": "Feature", "properties": {"norad_id": 59598, "name": "GSAT0225 (GALILEO 29)", "group": "galileo", "lat": -1.3640047060704874, "lon": 105.54607612515109, "alt_km": 23228.455436567056, "timestamp": "2025-12-04T15:47:54.361108+00:00", "meta": {"OBJECT_NAME": "GSAT0225 (GALILEO 29)", "OBJECT_ID": "2024-079A", "EPOCH": "2025-12-04T01:47:23.955648", "MEAN_MOTION": 1.70474518, "ECCENTRICITY": 0.0002, "INCLINATION": 54.9978, "RA_OF_ASC_NODE": 106.5374, "ARG_OF_PERICENTER": 171.9845, "MEAN_ANOMALY": 188.0819, "EPHEMERIS_TYPE": 0, "CLASSIFICATION_TYPE": "U", "NORAD_CAT_ID": 59598, "ELEMENT_SET_NO": 999, "REV_AT_EPOCH": 999, "BSTAR": 0, "MEAN_MOTION_DOT": 1.5e-07, "MEAN_MOTION_DDOT": 0}, "tle": {"line1": "1 59598U 24079A   25338.07458282  .00000015  00000+0  00000+0 0  9999", "line2": "2 59598  54.9978 106.5374 0002000 171.9845 188.0819  1.70474518  9992"}}, "geometry": {"type": "Point", "coordinates": [105.54607612515109, -1.3640047060704874]}}, {"type": "Feature", "properties": {"norad_id": 59600, "name": "GSAT0227 (GALILEO 30)", "group": "galileo", "lat": -48.37007649735078, "lon": -21.495471041233692, "alt_km": 23234.35641523605, "timestamp": "2025-12-04T15:47:54.361119+00:00", "meta": {"OBJECT_NAME": "GSAT0227 (GALILEO 30)", "OBJECT_ID": "2024-079C", "EPOCH": "2025-12-03T16:06:35.879040", "MEAN_MOTION": 1.70474617, "ECCENTRICITY": 0.00034037, "INCLINATION": 54.9912, "RA_OF_ASC_NODE": 106.5479, "ARG_OF_PERICENTER": 113.2328, "MEAN_ANOMALY": 246.7577, "EPHEMERIS_TYPE": 0, "CLASSIFICATION_TYPE": "U", "NORAD_CAT_ID": 59600, "ELEMENT_SET_NO": 999, "REV_AT_EPOCH": 1003, "BSTAR": 0, "MEAN_MOTION_DOT": 1.8e-07, "MEAN_MOTION_DDOT": 0}, "tle": {"line1": "1 59600U 24079C   25337.67124860  .00000018  00000+0  00000+0 0  9993", "line2": "2 59600  54.9912 106.5479 0003403 113.2328 246.7577  1.70474617 10033"}}, "geometry": {"type": "Point", "coordinates": [-21.495471041233692, -48.37007649735078]}}, {"type": "Feature", "properties": {"norad_id": 61182, "name": "GSAT0232 (GALILEO 32)", "group": "galileo", "lat": 54.082130794590704, "lon": -60.15376081288232, "alt_km": 23220.785841282534, "timestamp": "2025-12-04T15:47:54.361131+00:00", "meta": {"OBJECT_NAME": "GSAT0232 (GALILEO 32)", "OBJECT_ID": "2024-167A", "EPOCH": "2025-11-29T15:16:36.414048", "MEAN_MOTION": 1.70473184, "ECCENTRICITY": 0.00022439, "INCLINATION": 55.2459, "RA_OF_ASC_NODE": 226.7912, "ARG_OF_PERICENTER": 216.1557, "MEAN_ANOMALY": 22.2275, "EPHEMERIS_TYPE": 0, "CLASSIFICATION_TYPE": "U", "NORAD_CAT_ID": 61182, "ELEMENT_SET_NO": 999, "REV_AT_EPOCH": 747, "BSTAR": 0, "MEAN_MOTION_DOT": 2.7e-07, "MEAN_MOTION_DDOT": 0}, "tle": {"line1": "1 61182U 24167A   25333.63653257  .00000027  00000+0  00000+0 0  9998", "line2": "2 61182  55.2459 226.7912 0002243 216.1557  22.2275  1.70473184  7470"}}, "geometry": {"type": "Point", "coordinates": [-60.15376081288232, 54.082130794590704]}}]}